IRIDIUM 171             
1 43929U 19002H   26009.64725741  .00000013  00000+0 -25050-5 0  9993
2 43929  86.3950  60.1349 0002344  90.0221 270.1244 14.34217500366237
IRIDIUM 170             
1 43930U 19002J   26009.59651993  .00000901  00000+0  13896-3 0  9994
2 43930  86.6063  59.8616 0002378  88.3134 271.8355 14.72253536375927
IRIDIUM 167             
1 43931U 19002K   26009.64091507  .00000067  00000+0  16883-4 0  9993
2 43931  86.3940  59.8697 0002581  89.5487 270.6005 14.34217618366230
IRIDIUM 181             
1 56726U 23068S   26009.34214146 -.00000006  00000+0 -76489-5 0  9993
2 56726  86.4527 123.2010 0001733  88.6335 271.5064 14.43305480139523
IRIDIUM 177             
1 56727U 23068T   26009.59400471  .00001055  00000+0  13541-3 0  9990
2 56727  86.1940  44.0961 0002300  88.7751 271.3733 14.80220280142901
IRIDIUM 174             
1 56728U 23068U   26009.65212068  .00000436  00000+0  65252-4 0  9990
2 56728  86.6073  59.9700 0002220  93.1498 266.9973 14.72249547142699
IRIDIUM 178             
1 56729U 23068V   26009.65076474  .00001451  00000+0  18762-3 0  9991
2 56729  86.6531  91.6383 0002470  84.0953 276.0550 14.80224207142914
IRIDIUM 179             
1 56730U 23068W   26009.64533870  .00000345  00000+0  41983-4 0  9993
2 56730  86.6780 100.1498 0002299  90.0365 270.1120 14.80233219142919
